BEIDOU-3 M19            
1 44864U 19090A   26061.26275238 -.00000008  00000+0  00000+0 0  9992
2 44864  56.4657  66.3234 0020408 291.3317 195.2232  1.86231220 42246
BEIDOU-3 M20            
1 44865U 19090B   26062.82614198 -.00000021  00000+0  00000+0 0  9993
2 44865  56.4687  66.3059 0017813 302.9430 241.3938  1.86231297 42257
BEIDOU-3 G2             
1 45344U 20017A   26063.70421447 -.00000149  00000+0  00000+0 0  9999
2 45344   2.6550  45.5884 0002775 305.0365 145.3662  1.00271270 22211
COSMOS 2545 [GLONASS-M] 
1 45358U 20018A   26063.11034895 -.00000050  00000+0  00000+0 0  9998
2 45358  64.4178 316.1141 0008224 250.2940 109.6781  2.13102333 46428
BEIDOU-3 G3             
1 45807U 20040A   26063.84770657 -.00000363  00000+0  00000+0 0  9992
2 45807   2.1912  67.1232 0004351 316.4937 194.6300  1.00275295 21027
NAVSTAR 79 (USA 304)    
1 45854U 20041A   26063.05410240 -.00000081  00000+0  00000+0 0  9994
2 45854  56.6057  33.0224 0061380 205.2590 171.1803  2.00560640 41933
GALAXY 30 (G-30)        
1 46114U 20056C   26063.49419834  .00000000  00000+0  00000+0 0  9996
2 46114   0.0238 163.2602 0002216 186.8316 225.0757  1.00272712 20243
COSMOS 2547 [GLONASS-K] 
1 46805U 20075A   26063.76811950  .00000008  00000+0  00000+0 0  9997
2 46805  64.5996 195.9570 0006753 229.6375 130.2687  2.13100113 41683
NAVSTAR 80 (USA 309)    
1 46826U 20078A   26063.80241721  .00000001  00000+0  00000+0 0  9994
2 46826  54.0015 215.0095 0068235 204.3155 325.6791  2.00565545 39411
NAVSTAR 81 (USA 319)    
1 48859U 21054A   26062.49128030 -.00000100  00000+0  00000+0 0  9999
2 48859  55.2215 336.7106 0023864 232.0768 255.4185  2.00575580 34631
QZS-1R (MICHIBIKI-1R)   
1 49336U 21096A   26062.70530965 -.00000260  00000+0  00000+0 0  9991
2 49336  37.2425  81.1405 0747356 269.6972 198.6025  1.00291339 15951
GSAT0223 (GALILEO 27)   
1 49809U 21116A   26048.03988929 -.00000078  00000+0  00000+0 0  9993
2 49809  57.2005 344.9238 0002865 278.1950 264.6358  1.70475508 26130
GSAT0224 (GALILEO 28)   
1 49810U 21116B   26054.89517960 -.00000088  00000+0  00000+0 0  9990
2 49810  57.1984 344.7369 0002182 291.9502 250.7131  1.70475193 26278
COSMOS 2557 [GLONASS-K] 
1 52984U 22075A   26062.52543027 -.00000052  00000+0  00000+0 0  9994
2 52984  64.3599 318.2098 0011629 283.5045  76.4245  2.13101658 28468
COSMOS 2559 [GLONASS-K] 
1 54031U 22130A   26063.28332775 -.00000055  00000+0  00000+0 0  9994
2 54031  64.3319 318.2699 0010607 181.5346 178.5209  2.13101260 26456
COSMOS 2564 [GLONASS-M] 
1 54377U 22161A   26063.59609659  .00000006  00000+0  00000+0 0  9998
2 54377  64.7416 196.1804 0009430 209.7987 150.1119  2.13101950 25404
NAVSTAR 82 (USA 343)    
1 55268U 23009A   26063.25322573  .00000006  00000+0  00000+0 0  9990
2 55268  55.1095 152.6438 0004761 333.3529  23.5463  2.00549160 23137
